RJOB   ?    ?    ? P      ? 20140526 2128 28.9500 GAU  3.75e-01 -1.00e+00 -1.00e+00 -1.00e+00
RMOA   ?    ?    ? P      ? 20140526 2128 29.0550 GAU  6.00e-02 -1.00e+00 -1.00e+00 -1.00e+00
RNON   ?    ?    ? P      ? 20140526 2128 29.0500 GAU  7.50e-02 -1.00e+00 -1.00e+00 -1.00e+00
